OBJECT_NAME,OBJECT_ID,EPOCH,MEAN_MOTION,ECCENTRICITY,INCLINATION,RA_OF_ASC_NODE,ARG_OF_PERICENTER,MEAN_ANOMALY,EPHEMERIS_TYPE,CLASSIFICATION_TYPE,NORAD_CAT_ID,ELEMENT_SET_NO,REV_AT_EPOCH,BSTAR,MEAN_MOTION_DOT,MEAN_MOTION_DDOT
LEMUR-2-ROUNDTRIPPER,2025-009DG,2026-07-15T04:04:03.412416,15.04231838,.0004458,97.7253,278.8143,63.8753,296.2931,0,U,62711,999,8183,.33632E-3,.4615E-4,0
LEMUR-2-MYNAMEISJEFF,2025-009DH,2026-07-15T04:01:52.671936,15.04222993,.0004066,97.7303,279.2107,97.4624,262.7064,0,U,62712,999,8183,.33262E-3,.4562E-4,0
LEMUR-2-LEIA-PHILIP,2025-052AN,2026-07-14T22:28:04.831392,14.97391318,.0005096,97.6806,87.4167,119.8953,240.2776,0,U,63246,999,7282,.21592E-4,.193E-5,0
LEMUR-2-LIA-MARTIN,2025-052AQ,2026-07-15T03:08:57.429600,14.98029975,.0005305,97.6870,88.1270,90.0857,270.0973,0,U,63248,999,7286,.18314E-3,.2106E-4,0
LEMUR-2-DELOITTE-1,2025-052BB,2026-07-15T04:16:59.937600,14.97781793,.000256,97.6882,88.5037,64.7937,295.3551,0,U,63259,999,7288,.1996E-3,.2285E-4,0
LEMUR-2-EMERSONROSE,2025-052BD,2026-07-15T03:01:20.347680,14.99290579,.0002726,97.6885,89.0649,60.8639,299.2857,0,U,63261,999,7292,.22486E-3,.2686E-4,0
LEMUR-2-MARACHE-FRAN,2025-052BE,2026-07-15T03:34:06.481632,15.00315109,.0005171,97.6837,89.4551,252.5472,107.5186,0,U,63262,999,7295,.1387E-3,.168E-4,0
LEMUR-2-THEFALCONER,2025-052BG,2026-07-15T03:24:38.030112,14.97563210,.0000289,97.6831,88.0589,292.8068,67.3123,0,U,63264,999,7287,.85317E-4,.938E-5,0
LEMUR-2-UNTITLED-SC,2025-061A,2026-07-14T22:06:56.736000,15.13645430,.0019212,97.5652,171.0866,163.9754,196.2089,0,U,63351,999,7178,.92972E-4,.1611E-4,0
LEMUR-2-ESPERANZA,2025-061B,2026-07-14T21:31:27.406272,15.13751282,.0018824,97.5659,171.1621,163.2431,196.9426,0,U,63352,999,7178,.10314E-3,.1799E-4,0
LEMUR-2-KREMPEL-BRO2,2025-061C,2026-07-14T23:34:03.434016,15.14178000,.0019953,97.5705,171.8154,155.9783,204.2383,0,U,63353,999,7181,.91459E-4,.1608E-4,0
LEMUR-2-THERMORAPTOR,2025-061D,2026-07-15T03:51:32.878944,15.14261275,.0019723,97.5711,172.0744,154.1868,206.0352,0,U,63354,999,7184,.10936E-3,.1941E-4,0
LEMUR-2-NEUROSPICY,2025-061E,2026-07-14T20:47:03.321888,15.14379540,.0017457,97.5638,171.3860,158.0548,202.1435,0,U,63355,999,7180,.11332E-3,.2019E-4,0
LEMUR-2-TILLINFINITY,2025-061F,2026-07-14T21:22:28.682400,15.14963133,.0019037,97.5623,171.7204,146.8297,213.4133,0,U,63356,999,7183,.11684E-3,.212E-4,0
LEMUR-2-KREMPEL-BRO1,2025-061G,2026-07-14T20:49:22.423296,15.14770587,.0019664,97.5623,171.6057,148.3273,211.9146,0,U,63357,999,7182,.11295E-3,.2037E-4,0
LEMUR-2-LANGER2SPACE,2025-061H,2026-07-14T21:35:32.440128,15.14463886,.0017397,97.5630,171.4405,156.1893,204.0148,0,U,63358,999,7181,.105E-3,.187E-4,0
LEMUR-2-BALTO,2025-052BH,2026-07-15T03:11:35.564928,15.00363697,.0005121,97.6929,89.4276,327.8612,32.2299,0,U,63395,999,7295,.20692E-3,.2538E-4,0
LEMUR-2-KRISH,2025-135AK,2026-07-14T06:59:13.109280,14.96445154,.00013907,97.7772,309.9867,95.6584,264.4796,0,U,64561,999,5797,.17575838E-3,.1935E-4,0
LEMUR-2-HUBBLE-4,2025-135AP,2026-07-14T22:33:54.659808,14.93685564,.0002651,97.7719,309.5247,162.7067,197.4243,0,U,64565,999,5801,.936E-4,.933E-5,0
LEMUR-2-SEJONG-2,2025-135BL,2026-07-15T05:57:31.300416,14.96911900,.0003971,97.7708,311.0834,218.5313,141.5625,0,U,64586,999,5814,.19331E-3,.2161E-4,0
LEMUR-2-HUBBLE-5,2025-135BT,2026-07-15T03:36:03.415392,14.94213621,.0004314,97.7741,310.4010,235.4221,124.6592,0,U,64840,999,5808,.70218E-4,.695E-5,0
LEMUR-2-KARENDARRELL,2025-135BU,2026-07-14T20:42:45.582048,15.00496961,.0012409,97.7716,312.0347,105.8170,254.4422,0,U,64841,999,5816,.33968E-3,.4225E-4,0
LEMUR-2-LUCILLE-ROSE,2025-135BV,2026-07-14T20:04:31.574784,15.00486338,.00148827,97.7711,312.0433,190.0513,170.0415,0,U,65403,999,5278,.27829675E-3,.3451E-4,0
LEMUR-2-AFFIE-WAUWIE,2025-248C,2026-07-14T09:19:56.627040,15.28229453,.00087596,45.3893,327.4899,246.6108,113.3860,0,U,66295,999,3875,.47322499E-3,.12991E-3,0
OTTER SDM,2025-276N,2026-07-15T03:54:58.180032,15.20056680,.0004296,97.4206,269.1787,254.0411,106.0351,0,U,66678,999,3466,.16803E-3,.3557E-4,0
LEMUR-2-STAS-GORBUK,2025-276W,2026-07-15T04:25:49.159200,15.19658337,.0003614,97.4240,269.2517,248.2139,111.8711,0,U,66686,999,3466,.13639E-3,.2841E-4,0
LEMUR-2-TEODOR,2025-276DG,2026-07-15T03:18:09.698400,15.21337141,.0002214,97.4145,269.4772,86.8721,273.2768,0,U,66768,999,3469,.14786E-3,.3242E-4,0
LEMUR-2-LAILA,2025-276DQ,2026-07-15T04:09:23.256576,15.21563113,.0002925,97.4169,269.6508,94.5398,265.6172,0,U,66776,999,3470,.13678E-3,.3014E-4,0
LEMUR-2-CELIJO-SB-PK,2025-276DW,2026-07-15T04:26:13.735680,15.00282855,.0007031,97.5197,266.0383,64.1114,296.0834,0,U,66781,999,2682,.21423E-3,.2627E-4,0
LEMUR-2-FINNIAN,2025-276DX,2026-07-14T10:07:12.706176,15.00610397,.00084412,97.5382,265.5655,359.1143,1.0065,0,U,66782,999,2408,.13038039E-3,.159E-4,0
